NORAD_CAT_ID,OBJECT_NAME,OBJECT_TYPE,EPOCH,MEAN_MOTION,ECCENTRICITY,INCLINATION,RA_OF_ASC_NODE,ARG_OF_PERICENTER,MEAN_ANOMALY,BSTAR,MEAN_MOTION_DOT,MEAN_MOTION_DDOT,TLE_LINE0,TLE_LINE1,TLE_LINE2,SEMIMAJOR_AXIS,PERIOD,APOGEE,PERIGEE,DECAYED
54068.0,STARLINK-5222,PAYLOAD,2024-08-21 14:00:01,15.08867121,0.0001315,53.2182,0.7957,94.7097,305.3543,-0.0041059,-0.00065091,0.0,0 STARLINK-5222,1 54068U 22136T   24234.58334491 -.00065091  00000-0 -41059-2 0  9993,2 54068  53.2182   0.7957 0001315  94.7097 305.3543 15.08867121102016,6917.797,95.436,540.572,538.753,0.0
54068.0,STARLINK-5222,PAYLOAD,2024-08-21 22:00:00,15.08823989,0.0001249,53.2178,359.2994,86.2856,325.3819,0.00049745,7.634e-05,0.0,0 STARLINK-5222,1 54068U 22136T   24234.91667824  .00007634  00000-0  49745-3 0  9997,2 54068  53.2178 359.2994 0001249  86.2856 325.3819 15.08823989  5653,6917.929,95.439,540.658,538.93,0.0
54068.0,STARLINK-5222,PAYLOAD,2024-08-22 00:00:00,15.08836231,0.0001257,53.2179,358.9249,89.8687,54.6933,-0.00045387,-7.503e-05,0.0,0 STARLINK-5222,1 54068U 22136T   24235.00001157 -.00007503  00000-0 -45387-3 0  9994,2 54068  53.2179 358.9249 0001257  89.8687  54.6933 15.08836231102081,6917.892,95.438,540.626,538.887,0.0
